CARTOSAT-2D             
1 41948U 17008A   26068.83674819  .00000554  00000+0  29492-4 0  9993
2 41948  97.4228 129.9353 0004377 220.7990 139.2917 15.19249562502498
STARLINK-4572           
1 53692U 22105AW  26068.67304046  .00012459  00000+0  56421-3 0  9998
2 53692  97.6182 315.6347 0001842  18.3505 341.7796 15.21020685193556
